METEOR PRIRODA          
1 12585U 81065A   23034.26902121  .00007592  00000+0  29121-3 0  9996
2 12585  97.5827  47.2133 0014172  53.2772 306.9766 15.26695103269352
SL-3 R/B                
1 13068U 82013B   23035.23742520  .00002969  00000+0  18282-3 0  9999
2 13068  81.1933  30.5949 0030236 352.4393   7.6371 15.09328317233571
SL-3 R/B                
1 13154U 82039B   23035.11001721  .00002036  00000+0  15802-3 0  9991
2 13154  81.1808  65.1759 0039961  67.6636 292.8812 15.00308120212004
SL-3 R/B                
1 13403U 82079B   23035.19643900  .00002534  00000+0  15512-3 0  9992
2 13403  81.1666  69.4080 0033168 343.5218  16.4925 15.09409756206747
SL-14 R/B               
1 13553U 82092B   23034.33686404  .00000487  00000+0  54481-4 0  9998
2 13553  82.5692 117.0984 0022729  86.0857 343.3882 14.84611434161103
SL-3 R/B                
1 13819U 83010B   23034.62599657  .00004187  00000+0  19637-3 0  9993
2 13819  81.1132 274.0913 0028611 310.6232  49.2509 15.19088181185095
