<?xml version="1.0" encoding="UTF-8"?>
<ndm xmlns:xsi="http://www.w3.org/2001/XMLSchema-instance" xsi:noNamespaceSchemaLocation="https://sanaregistry.org/r/ndmxml_unqualified/ndmxml-2.0.0-master-2.0.xsd">
<omm id="CCSDS_OMM_VERS" version="2.0">
<header><CREATION_DATE/><ORIGINATOR/></header><body><segment><metadata><OBJECT_NAME>METEOR PRIRODA</OBJECT_NAME><OBJECT_ID>1981-065A</OBJECT_ID><CENTER_NAME>EARTH</CENTER_NAME><REF_FRAME>TEME</REF_FRAME><TIME_SYSTEM>UTC</TIME_SYSTEM><MEAN_ELEMENT_THEORY>SGP4</MEAN_ELEMENT_THEORY></metadata><data><meanElements><EPOCH>2023-02-03T06:27:23.432544</EPOCH><MEAN_MOTION>15.26695103</MEAN_MOTION><ECCENTRICITY>.0014172</ECCENTRICITY><INCLINATION>97.5827</INCLINATION><RA_OF_ASC_NODE>47.2133</RA_OF_ASC_NODE><ARG_OF_PERICENTER>53.2772</ARG_OF_PERICENTER><MEAN_ANOMALY>306.9766</MEAN_ANOMALY></meanElements><tleParameters><EPHEMERIS_TYPE>0</EPHEMERIS_TYPE><CLASSIFICATION_TYPE>U</CLASSIFICATION_TYPE><NORAD_CAT_ID>12585</NORAD_CAT_ID><ELEMENT_SET_NO>999</ELEMENT_SET_NO><REV_AT_EPOCH>26935</REV_AT_EPOCH><BSTAR>.29121E-3</BSTAR><MEAN_MOTION_DOT>.7592E-4</MEAN_MOTION_DOT><MEAN_MOTION_DDOT>0</MEAN_MOTION_DDOT></tleParameters></data></segment></body></omm>
<omm id="CCSDS_OMM_VERS" version="2.0">
<header><CREATION_DATE/><ORIGINATOR/></header><body><segment><metadata><OBJECT_NAME>SL-3 R/B</OBJECT_NAME><OBJECT_ID>1982-013B</OBJECT_ID><CENTER_NAME>EARTH</CENTER_NAME><REF_FRAME>TEME</REF_FRAME><TIME_SYSTEM>UTC</TIME_SYSTEM><MEAN_ELEMENT_THEORY>SGP4</MEAN_ELEMENT_THEORY></metadata><data><meanElements><EPOCH>2023-02-04T05:41:53.537280</EPOCH><MEAN_MOTION>15.09328317</MEAN_MOTION><ECCENTRICITY>.0030236</ECCENTRICITY><INCLINATION>81.1933</INCLINATION><RA_OF_ASC_NODE>30.5949</RA_OF_ASC_NODE><ARG_OF_PERICENTER>352.4393</ARG_OF_PERICENTER><MEAN_ANOMALY>7.6371</MEAN_ANOMALY></meanElements><tleParameters><EPHEMERIS_TYPE>0</EPHEMERIS_TYPE><CLASSIFICATION_TYPE>U</CLASSIFICATION_TYPE><NORAD_CAT_ID>13068</NORAD_CAT_ID><ELEMENT_SET_NO>999</ELEMENT_SET_NO><REV_AT_EPOCH>23357</REV_AT_EPOCH><BSTAR>.18282E-3</BSTAR><MEAN_MOTION_DOT>.2969E-4</MEAN_MOTION_DOT><MEAN_MOTION_DDOT>0</MEAN_MOTION_DDOT></tleParameters></data></segment></body></omm>
<omm id="CCSDS_OMM_VERS" version="2.0">
<header><CREATION_DATE/><ORIGINATOR/></header><body><segment><metadata><OBJECT_NAME>SL-3 R/B</OBJECT_NAME><OBJECT_ID>1982-039B</OBJECT_ID><CENTER_NAME>EARTH</CENTER_NAME><REF_FRAME>TEME</REF_FRAME><TIME_SYSTEM>UTC</TIME_SYSTEM><MEAN_ELEMENT_THEORY>SGP4</MEAN_ELEMENT_THEORY></metadata><data><meanElements><EPOCH>2023-02-04T02:38:25.486944</EPOCH><MEAN_MOTION>15.00308120</MEAN_MOTION><ECCENTRICITY>.0039961</ECCENTRICITY><INCLINATION>81.1808</INCLINATION><RA_OF_ASC_NODE>65.1759</RA_OF_ASC_NODE><ARG_OF_PERICENTER>67.6636</ARG_OF_PERICENTER><MEAN_ANOMALY>292.8812</MEAN_ANOMALY></meanElements><tleParameters><EPHEMERIS_TYPE>0</EPHEMERIS_TYPE><CLASSIFICATION_TYPE>U</CLASSIFICATION_TYPE><NORAD_CAT_ID>13154</NORAD_CAT_ID><ELEMENT_SET_NO>999</ELEMENT_SET_NO><REV_AT_EPOCH>21200</REV_AT_EPOCH><BSTAR>.15802E-3</BSTAR><MEAN_MOTION_DOT>.2036E-4</MEAN_MOTION_DOT><MEAN_MOTION_DDOT>0</MEAN_MOTION_DDOT></tleParameters></data></segment></body></omm>
<omm id="CCSDS_OMM_VERS" version="2.0">
<header><CREATION_DATE/><ORIGINATOR/></header><body><segment><metadata><OBJECT_NAME>SL-3 R/B</OBJECT_NAME><OBJECT_ID>1982-079B</OBJECT_ID><CENTER_NAME>EARTH</CENTER_NAME><REF_FRAME>TEME</REF_FRAME><TIME_SYSTEM>UTC</TIME_SYSTEM><MEAN_ELEMENT_THEORY>SGP4</MEAN_ELEMENT_THEORY></metadata><data><meanElements><EPOCH>2023-02-04T04:42:52.329600</EPOCH><MEAN_MOTION>15.09409756</MEAN_MOTION><ECCENTRICITY>.0033168</ECCENTRICITY><INCLINATION>81.1666</INCLINATION><RA_OF_ASC_NODE>69.4080</RA_OF_ASC_NODE><ARG_OF_PERICENTER>343.5218</ARG_OF_PERICENTER><MEAN_ANOMALY>16.4925</MEAN_ANOMALY></meanElements><tleParameters><EPHEMERIS_TYPE>0</EPHEMERIS_TYPE><CLASSIFICATION_TYPE>U</CLASSIFICATION_TYPE><NORAD_CAT_ID>13403</NORAD_CAT_ID><ELEMENT_SET_NO>999</ELEMENT_SET_NO><REV_AT_EPOCH>20674</REV_AT_EPOCH><BSTAR>.15512E-3</BSTAR><MEAN_MOTION_DOT>.2534E-4</MEAN_MOTION_DOT><MEAN_MOTION_DDOT>0</MEAN_MOTION_DDOT></tleParameters></data></segment></body></omm>
<omm id="CCSDS_OMM_VERS" version="2.0">
<header><CREATION_DATE/><ORIGINATOR/></header><body><segment><metadata><OBJECT_NAME>SL-14 R/B</OBJECT_NAME><OBJECT_ID>1982-092B</OBJECT_ID><CENTER_NAME>EARTH</CENTER_NAME><REF_FRAME>TEME</REF_FRAME><TIME_SYSTEM>UTC</TIME_SYSTEM><MEAN_ELEMENT_THEORY>SGP4</MEAN_ELEMENT_THEORY></metadata><data><meanElements><EPOCH>2023-02-03T08:05:05.053056</EPOCH><MEAN_MOTION>14.84611434</MEAN_MOTION><ECCENTRICITY>.0022729</ECCENTRICITY><INCLINATION>82.5692</INCLINATION><RA_OF_ASC_NODE>117.0984</RA_OF_ASC_NODE><ARG_OF_PERICENTER>86.0857</ARG_OF_PERICENTER><MEAN_ANOMALY>343.3882</MEAN_ANOMALY></meanElements><tleParameters><EPHEMERIS_TYPE>0</EPHEMERIS_TYPE><CLASSIFICATION_TYPE>U</CLASSIFICATION_TYPE><NORAD_CAT_ID>13553</NORAD_CAT_ID><ELEMENT_SET_NO>999</ELEMENT_SET_NO><REV_AT_EPOCH>16110</REV_AT_EPOCH><BSTAR>.54481E-4</BSTAR><MEAN_MOTION_DOT>.487E-5</MEAN_MOTION_DOT><MEAN_MOTION_DDOT>0</MEAN_MOTION_DDOT></tleParameters></data></segment></body></omm>
<omm id="CCSDS_OMM_VERS" version="2.0">
<header><CREATION_DATE/><ORIGINATOR/></header><body><segment><metadata><OBJECT_NAME>SL-3 R/B</OBJECT_NAME><OBJECT_ID>1983-010B</OBJECT_ID><CENTER_NAME>EARTH</CENTER_NAME><REF_FRAME>TEME</REF_FRAME><TIME_SYSTEM>UTC</TIME_SYSTEM><MEAN_ELEMENT_THEORY>SGP4</MEAN_ELEMENT_THEORY></metadata><data><meanElements><EPOCH>2023-02-03T15:01:26.103648</EPOCH><MEAN_MOTION>15.19088181</MEAN_MOTION><ECCENTRICITY>.0028611</ECCENTRICITY><INCLINATION>81.1132</INCLINATION><RA_OF_ASC_NODE>274.0913</RA_OF_ASC_NODE><ARG_OF_PERICENTER>310.6232</ARG_OF_PERICENTER><MEAN_ANOMALY>49.2509</MEAN_ANOMALY></meanElements><tleParameters><EPHEMERIS_TYPE>0</EPHEMERIS_TYPE><CLASSIFICATION_TYPE>U</CLASSIFICATION_TYPE><NORAD_CAT_ID>13819</NORAD_CAT_ID><ELEMENT_SET_NO>999</ELEMENT_SET_NO><REV_AT_EPOCH>18509</REV_AT_EPOCH><BSTAR>.19637E-3</BSTAR><MEAN_MOTION_DOT>.4187E-4</MEAN_MOTION_DOT><MEAN_MOTION_DDOT>0</MEAN_MOTION_DDOT></tleParameters></data></segment></body></omm>

</ndm>
